{
  "type": "FeatureCollection",
  "features": [
    {
      "type": "Feature",
      "properties": {
        "norad_id": 37836,
        "name": "EUTELSAT 16A",
        "group": "eutelsat",
        "lat": -0.0698105343524216,
        "lon": -75.33572168285087,
        "alt_km": 35761.79477687626,
        "timestamp": "2025-12-25T11:37:44.093084+00:00",
        "meta_object_name": "EUTELSAT 16A",
        "meta_object_id": "2011-057A",
        "meta_epoch": "2025-12-24T23:26:49.113312",
        "meta_mean_motion": 1.00271109,
        "meta_eccentricity": 0.0005841,
        "meta_inclination": 0.0561,
        "meta_ra_of_asc_node": 348.7482,
        "meta_arg_of_pericenter": 286.97,
        "meta_mean_anomaly": 185.7141,
        "meta_ephemeris_type": 0,
        "meta_classification_type": "U",
        "meta_norad_cat_id": 37836,
        "meta_element_set_no": 999,
        "meta_rev_at_epoch": 558,
        "meta_bstar": 0,
        "meta_mean_motion_dot": 1.25e-06,
        "meta_mean_motion_ddot": 0,
        "tle_line1": "1 37836U 11057A   25358.97695733  .00000125  00000+0  00000+0 0  9999",
        "tle_line2": "2 37836   0.0561 348.7482 0005841 286.9700 185.7141  1.00271109  5583"
      },
      "geometry": {
        "type": "Point",
        "coordinates": [
          -75.33572168285087,
          -0.0698105343524216
        ]
      }
    },
    {
      "type": "Feature",
      "properties": {
        "norad_id": 38992,
        "name": "EUTELSAT 21B",
        "group": "eutelsat",
        "lat": -0.07565438187719396,
        "lon": -69.74564051916171,
        "alt_km": 35772.73647484544,
        "timestamp": "2025-12-25T11:37:44.093095+00:00",
        "meta_object_name": "EUTELSAT 21B",
        "meta_object_id": "2012-062B",
        "meta_epoch": "2025-12-24T23:28:26.456736",
        "meta_mean_motion": 1.00271068,
        "meta_eccentricity": 0.0003245,
        "meta_inclination": 0.0657,
        "meta_ra_of_asc_node": 349.5129,
        "meta_arg_of_pericenter": 289.9649,
        "meta_mean_anomaly": 187.9548,
        "meta_ephemeris_type": 0,
        "meta_classification_type": "U",
        "meta_norad_cat_id": 38992,
        "meta_element_set_no": 999,
        "meta_rev_at_epoch": 4808,
        "meta_bstar": 0,
        "meta_mean_motion_dot": 1.51e-06,
        "meta_mean_motion_ddot": 0,
        "tle_line1": "1 38992U 12062B   25358.97808399  .00000151  00000+0  00000+0 0  9993",
        "tle_line2": "2 38992   0.0657 349.5129 0003245 289.9649 187.9548  1.00271068 48082"
      },
      "geometry": {
        "type": "Point",
        "coordinates": [
          -69.74564051916171,
          -0.07565438187719396
        ]
      }
    },
    {
      "type": "Feature",
      "properties": {
        "norad_id": 39020,
        "name": "EUTELSAT 70B",
        "group": "eutelsat",
        "lat": -0.017932760800465426,
        "lon": -20.787053156404873,
        "alt_km": 35784.204531582196,
        "timestamp": "2025-12-25T11:37:44.093107+00:00",
        "meta_object_name": "EUTELSAT 70B",
        "meta_object_id": "2012-069A",
        "meta_epoch": "2025-12-24T23:42:25.119072",
        "meta_mean_motion": 1.00271905,
        "meta_eccentricity": 0.0004192,
        "meta_inclination": 0.0621,
        "meta_ra_of_asc_node": 347.1794,
        "meta_arg_of_pericenter": 267.7791,
        "meta_mean_anomaly": 264.8944,
        "meta_ephemeris_type": 0,
        "meta_classification_type": "U",
        "meta_norad_cat_id": 39020,
        "meta_element_set_no": 999,
        "meta_rev_at_epoch": 4776,
        "meta_bstar": 0,
        "meta_mean_motion_dot": -2.2e-07,
        "meta_mean_motion_ddot": 0,
        "tle_line1": "1 39020U 12069A   25358.98779073 -.00000022  00000+0  00000+0 0  9998",
        "tle_line2": "2 39020   0.0621 347.1794 0004192 267.7791 264.8944  1.00271905 47761"
      },
      "geometry": {
        "type": "Point",
        "coordinates": [
          -20.787053156404873,
          -0.017932760800465426
        ]
      }
    },
    {
      "type": "Feature",
      "properties": {
        "norad_id": 39122,
        "name": "EUTELSAT 117 WEST A",
        "group": "eutelsat",
        "lat": 0.004834061248455255,
        "lon": 151.84877896537114,
        "alt_km": 35793.11177757071,
        "timestamp": "2025-12-25T11:37:44.093119+00:00",
        "meta_object_name": "EUTELSAT 117 WEST A",
        "meta_object_id": "2013-012A",
        "meta_epoch": "2025-12-25T03:39:37.302048",
        "meta_mean_motion": 1.00270793,
        "meta_eccentricity": 0.0002746,
        "meta_inclination": 0.0189,
        "meta_ra_of_asc_node": 321.021,
        "meta_arg_of_pericenter": 316.4118,
        "meta_mean_anomaly": 114.594,
        "meta_ephemeris_type": 0,
        "meta_classification_type": "U",
        "meta_norad_cat_id": 39122,
        "meta_element_set_no": 999,
        "meta_rev_at_epoch": 4668,
        "meta_bstar": 0,
        "meta_mean_motion_dot": 8e-08,
        "meta_mean_motion_ddot": 0,
        "tle_line1": "1 39122U 13012A   25359.15251507  .00000008  00000+0  00000+0 0  9990",
        "tle_line2": "2 39122   0.0189 321.0210 0002746 316.4118 114.5940  1.00270793 46686"
      },
      "geometry": {
        "type": "Point",
        "coordinates": [
          151.84877896537114,
          0.004834061248455255
        ]
      }
    },
    {
      "type": "Feature",
      "properties": {
        "norad_id": 39163,
        "name": "EUTELSAT 7B",
        "group": "eutelsat",
        "lat": -0.08624010332874203,
        "lon": -84.37471178378368,
        "alt_km": 35772.74294248246,
        "timestamp": "2025-12-25T11:37:44.093132+00:00",
        "meta_object_name": "EUTELSAT 7B",
        "meta_object_id": "2013-022A",
        "meta_epoch": "2025-12-24T23:24:19.351008",
        "meta_mean_motion": 1.00271638,
        "meta_eccentricity": 0.0004609,
        "meta_inclination": 0.0657,
        "meta_ra_of_asc_node": 9.0547,
        "meta_arg_of_pericenter": 313.3925,
        "meta_mean_anomaly": 129.3681,
        "meta_ephemeris_type": 0,
        "meta_classification_type": "U",
        "meta_norad_cat_id": 39163,
        "meta_element_set_no": 999,
        "meta_rev_at_epoch": 4620,
        "meta_bstar": 0,
        "meta_mean_motion_dot": 6.9e-07,
        "meta_mean_motion_ddot": 0,
        "tle_line1": "1 39163U 13022A   25358.97522397  .00000069  00000+0  00000+0 0  9990",
        "tle_line2": "2 39163   0.0657   9.0547 0004609 313.3925 129.3681  1.00271638 46202"
      },
      "geometry": {
        "type": "Point",
        "coordinates": [
          -84.37471178378368,
          -0.08624010332874203
        ]
      }
    },
    {
      "type": "Feature",
      "properties": {
        "norad_id": 39612,
        "name": "EXPRESS-AT1",
        "group": "eutelsat",
        "lat": -0.003976578116241103,
        "lon": -35.33812546547844,
        "alt_km": 35789.5432084807,
        "timestamp": "2025-12-25T11:37:44.093145+00:00",
        "meta_object_name": "EXPRESS-AT1",
        "meta_object_id": "2014-010A",
        "meta_epoch": "2025-12-25T01:46:38.582688",
        "meta_mean_motion": 1.0027131,
        "meta_eccentricity": 8.83e-05,
        "meta_inclination": 0.0118,
        "meta_ra_of_asc_node": 294.5388,
        "meta_arg_of_pericenter": 184.5356,
        "meta_mean_anomaly": 57.4216,
        "meta_ephemeris_type": 0,
        "meta_classification_type": "U",
        "meta_norad_cat_id": 39612,
        "meta_element_set_no": 999,
        "meta_rev_at_epoch": 4307,
        "meta_bstar": 0,
        "meta_mean_motion_dot": 1e-06,
        "meta_mean_motion_ddot": 0,
        "tle_line1": "1 39612U 14010A   25359.07405767  .00000100  00000+0  00000+0 0  9996",
        "tle_line2": "2 39612   0.0118 294.5388 0000883 184.5356  57.4216  1.00271310 43077"
      },
      "geometry": {
        "type": "Point",
        "coordinates": [
          -35.33812546547844,
          -0.003976578116241103
        ]
      }
    },
    {
      "type": "Feature",
      "properties": {
        "norad_id": 39613,
        "name": "EXPRESS-AT2",
        "group": "eutelsat",
        "lat": 0.018973338455421353,
        "lon": 48.54534909141816,
        "alt_km": 35790.86572262549,
        "timestamp": "2025-12-25T11:37:44.093156+00:00",
        "meta_object_name": "EXPRESS-AT2",
        "meta_object_id": "2014-010B",
        "meta_epoch": "2025-12-25T04:34:38.772192",
        "meta_mean_motion": 1.00271861,
        "meta_eccentricity": 0.0001582,
        "meta_inclination": 0.0163,
        "meta_ra_of_asc_node": 292.9031,
        "meta_arg_of_pericenter": 340.1692,
        "meta_mean_anomaly": 29.4052,
        "meta_ephemeris_type": 0,
        "meta_classification_type": "U",
        "meta_norad_cat_id": 39613,
        "meta_element_set_no": 999,
        "meta_rev_at_epoch": 4275,
        "meta_bstar": 0,
        "meta_mean_motion_dot": -2.6e-06,
        "meta_mean_motion_ddot": 0,
        "tle_line1": "1 39613U 14010B   25359.19072653 -.00000260  00000+0  00000+0 0  9992",
        "tle_line2": "2 39613   0.0163 292.9031 0001582 340.1692  29.4052  1.00271861 42757"
      },
      "geometry": {
        "type": "Point",
        "coordinates": [
          48.54534909141816,
          0.018973338455421353
        ]
      }
    }
  ]
}